[{"OBJECT_NAME":"STARLINK-34698","OBJECT_ID":"2025-259Z","EPOCH":"2026-01-03T11:23:51.617472","MEAN_MOTION":15.27612892,"ECCENTRICITY":0.0002099,"INCLINATION":42.9939,"RA_OF_ASC_NODE":282.9801,"ARG_OF_PERICENTER":262.4864,"MEAN_ANOMALY":97.5749,"EPHEMERIS_TYPE":0,"CLASSIFICATION_TYPE":"U","NORAD_CAT_ID":66445,"ELEMENT_SET_NO":999,"REV_AT_EPOCH":940,"BSTAR":0.0017388,"MEAN_MOTION_DOT":0.00047948,"MEAN_MOTION_DDOT":0},{"OBJECT_NAME":"STARLINK-34986","OBJECT_ID":"2025-259AA","EPOCH":"2026-01-03T12:00:01.999296","MEAN_MOTION":15.2756523,"ECCENTRICITY":0.0001527,"INCLINATION":42.9988,"RA_OF_ASC_NODE":282.7482,"ARG_OF_PERICENTER":259.6432,"MEAN_ANOMALY":274.0544,"EPHEMERIS_TYPE":0,"CLASSIFICATION_TYPE":"U","NORAD_CAT_ID":66446,"ELEMENT_SET_NO":999,"REV_AT_EPOCH":596,"BSTAR":0.0011797,"MEAN_MOTION_DOT":0.00032328,"MEAN_MOTION_DDOT":0},{"OBJECT_NAME":"STARLINK-34851","OBJECT_ID":"2025-259AB","EPOCH":"2026-01-03T12:00:01.999296","MEAN_MOTION":15.27563097,"ECCENTRICITY":0.0001352,"INCLINATION":42.9995,"RA_OF_ASC_NODE":282.918,"ARG_OF_PERICENTER":264.2996,"MEAN_ANOMALY":198.6495,"EPHEMERIS_TYPE":0,"CLASSIFICATION_TYPE":"U","NORAD_CAT_ID":66447,"ELEMENT_SET_NO":999,"REV_AT_EPOCH":581,"BSTAR":0.0013281,"MEAN_MOTION_DOT":0.00036446,"MEAN_MOTION_DDOT":0},{"OBJECT_NAME":"STARLINK-35355","OBJECT_ID":"2025-259AC","EPOCH":"2026-01-03T11:25:43.513248","MEAN_MOTION":15.27584461,"ECCENTRICITY":0.0001956,"INCLINATION":42.9953,"RA_OF_ASC_NODE":282.9845,"ARG_OF_PERICENTER":272.6338,"MEAN_ANOMALY":87.429,"EPHEMERIS_TYPE":0,"CLASSIFICATION_TYPE":"U","NORAD_CAT_ID":66448,"ELEMENT_SET_NO":999,"REV_AT_EPOCH":951,"BSTAR":0.0014574,"MEAN_MOTION_DOT":0.00040067,"MEAN_MOTION_DDOT":0},{"OBJECT_NAME":"STARLINK-34720","OBJECT_ID":"2025-259AD","EPOCH":"2026-01-03T11:18:19.590912","MEAN_MOTION":15.27570547,"ECCENTRICITY":0.0002194,"INCLINATION":43.0029,"RA_OF_ASC_NODE":282.9436,"ARG_OF_PERICENTER":266.6811,"MEAN_ANOMALY":93.379,"EPHEMERIS_TYPE":0,"CLASSIFICATION_TYPE":"U","NORAD_CAT_ID":66449,"ELEMENT_SET_NO":999,"REV_AT_EPOCH":940,"BSTAR":0.0017817,"MEAN_MOTION_DOT":0.0004908,"MEAN_MOTION_DDOT":0},{"OBJECT_NAME":"STARLINK-35334","OBJECT_ID":"2025-259AE","EPOCH":"2026-01-03T12:00:01.999296","MEAN_MOTION":15.2754097,"ECCENTRICITY":0.0001558,"INCLINATION":42.999,"RA_OF_ASC_NODE":282.7292,"ARG_OF_PERICENTER":260.4546,"MEAN_ANOMALY":280.3207,"EPHEMERIS_TYPE":0,"CLASSIFICATION_TYPE":"U","NORAD_CAT_ID":66450,"ELEMENT_SET_NO":999,"REV_AT_EPOCH":590,"BSTAR":0.001191,"MEAN_MOTION_DOT":0.00032617,"MEAN_MOTION_DDOT":0},{"OBJECT_NAME":"STARLINK-35643","OBJECT_ID":"2025-262A","EPOCH":"2026-01-03T05:39:19.624320","MEAN_MOTION":15.40795167,"ECCENTRICITY":0.0003673,"INCLINATION":43.0035,"RA_OF_ASC_NODE":307.7669,"ARG_OF_PERICENTER":241.6078,"MEAN_ANOMALY":118.4408,"EPHEMERIS_TYPE":0,"CLASSIFICATION_TYPE":"U","NORAD_CAT_ID":66456,"ELEMENT_SET_NO":999,"REV_AT_EPOCH":887,"BSTAR":0.0019318,"MEAN_MOTION_DOT":0.00081527,"MEAN_MOTION_DDOT":0},{"OBJECT_NAME":"STARLINK-35466","OBJECT_ID":"2025-262B","EPOCH":"2026-01-03T07:06:15.880032","MEAN_MOTION":15.40771193,"ECCENTRICITY":0.0001388,"INCLINATION":43.0001,"RA_OF_ASC_NODE":307.3597,"ARG_OF_PERICENTER":283.6288,"MEAN_ANOMALY":76.4414,"EPHEMERIS_TYPE":0,"CLASSIFICATION_TYPE":"U","NORAD_CAT_ID":66457,"ELEMENT_SET_NO":999,"REV_AT_EPOCH":888,"BSTAR":0.0020451,"MEAN_MOTION_DOT":0.00086301,"MEAN_MOTION_DDOT":0},{"OBJECT_NAME":"STARLINK-35684","OBJECT_ID":"2025-262C","EPOCH":"2026-01-03T00:00:02.000160","MEAN_MOTION":15.40654265,"ECCENTRICITY":0.0001585,"INCLINATION":43.0021,"RA_OF_ASC_NODE":309.0974,"ARG_OF_PERICENTER":274.6027,"MEAN_ANOMALY":229.3646,"EPHEMERIS_TYPE":0,"CLASSIFICATION_TYPE":"U","NORAD_CAT_ID":66458,"ELEMENT_SET_NO":999,"REV_AT_EPOCH":595,"BSTAR":0.00090537241,"MEAN_MOTION_DOT":0.00037645,"MEAN_MOTION_DDOT":0},{"OBJECT_NAME":"STARLINK-35449","OBJECT_ID":"2025-262D","EPOCH":"2026-01-03T05:29:40.559424","MEAN_MOTION":15.40746177,"ECCENTRICITY":0.0002984,"INCLINATION":43.0012,"RA_OF_ASC_NODE":307.7162,"ARG_OF_PERICENTER":256.7893,"MEAN_ANOMALY":103.263,"EPHEMERIS_TYPE":0,"CLASSIFICATION_TYPE":"U","NORAD_CAT_ID":66459,"ELEMENT_SET_NO":999,"REV_AT_EPOCH":887,"BSTAR":0.0022081,"MEAN_MOTION_DOT":0.00093221,"MEAN_MOTION_DDOT":0},{"OBJECT_NAME":"STARLINK-35424","OBJECT_ID":"2025-262E","EPOCH":"2026-01-03T05:26:26.892960","MEAN_MOTION":15.40751457,"ECCENTRICITY":0.0002991,"INCLINATION":43.0025,"RA_OF_ASC_NODE":307.6977,"ARG_OF_PERICENTER":254.4259,"MEAN_ANOMALY":105.6267,"EPHEMERIS_TYPE":0,"CLASSIFICATION_TYPE":"U","NORAD_CAT_ID":66460,"ELEMENT_SET_NO":999,"REV_AT_EPOCH":887,"BSTAR":0.0024206,"MEAN_MOTION_DOT":0.00102358,"MEAN_MOTION_DDOT":0},{"OBJECT_NAME":"STARLINK-35132","OBJECT_ID":"2025-262F","EPOCH":"2026-01-03T05:23:13.799328","MEAN_MOTION":15.40737482,"ECCENTRICITY":0.0002397,"INCLINATION":43.0046,"RA_OF_ASC_NODE":307.6812,"ARG_OF_PERICENTER":261.2402,"MEAN_ANOMALY":98.8183,"EPHEMERIS_TYPE":0,"CLASSIFICATION_TYPE":"U","NORAD_CAT_ID":66461,"ELEMENT_SET_NO":999,"REV_AT_EPOCH":887,"BSTAR":0.0019641,"MEAN_MOTION_DOT":0.00082741,"MEAN_MOTION_DDOT":0},{"OBJECT_NAME":"STARLINK-35499","OBJECT_ID":"2025-262G","EPOCH":"2026-01-03T05:20:00.432672","MEAN_MOTION":15.40741911,"ECCENTRICITY":0.0001698,"INCLINATION":43.0023,"RA_OF_ASC_NODE":307.6645,"ARG_OF_PERICENTER":263.4936,"MEAN_ANOMALY":96.5727,"EPHEMERIS_TYPE":0,"CLASSIFICATION_TYPE":"U","NORAD_CAT_ID":66462,"ELEMENT_SET_NO":999,"REV_AT_EPOCH":887,"BSTAR":0.0023126,"MEAN_MOTION_DOT":0.00097681,"MEAN_MOTION_DDOT":0},{"OBJECT_NAME":"STARLINK-35463","OBJECT_ID":"2025-262H","EPOCH":"2026-01-03T05:13:33.307104","MEAN_MOTION":15.40760884,"ECCENTRICITY":0.0001549,"INCLINATION":43.002,"RA_OF_ASC_NODE":307.629,"ARG_OF_PERICENTER":275.8974,"MEAN_ANOMALY":84.1706,"EPHEMERIS_TYPE":0,"CLASSIFICATION_TYPE":"U","NORAD_CAT_ID":66463,"ELEMENT_SET_NO":999,"REV_AT_EPOCH":887,"BSTAR":0.0026421,"MEAN_MOTION_DOT":0.00111921,"MEAN_MOTION_DDOT":0},{"OBJECT_NAME":"STARLINK-35435","OBJECT_ID":"2025-262J","EPOCH":"2026-01-03T05:16:46.540704","MEAN_MOTION":15.40703272,"ECCENTRICITY":0.0002289,"INCLINATION":43.0045,"RA_OF_ASC_NODE":307.6477,"ARG_OF_PERICENTER":284.9765,"MEAN_ANOMALY":75.0838,"EPHEMERIS_TYPE":0,"CLASSIFICATION_TYPE":"U","NORAD_CAT_ID":66464,"ELEMENT_SET_NO":999,"REV_AT_EPOCH":887,"BSTAR":0.0025169,"MEAN_MOTION_DOT":0.00106324,"MEAN_MOTION_DDOT":0},{"OBJECT_NAME":"STARLINK-35448","OBJECT_ID":"2025-262K","EPOCH":"2026-01-03T05:07:06.325824","MEAN_MOTION":15.40751226,"ECCENTRICITY":0.0001212,"INCLINATION":43.0016,"RA_OF_ASC_NODE":307.5936,"ARG_OF_PERICENTER":263.0861,"MEAN_ANOMALY":96.9857,"EPHEMERIS_TYPE":0,"CLASSIFICATION_TYPE":"U","NORAD_CAT_ID":66465,"ELEMENT_SET_NO":999,"REV_AT_EPOCH":887,"BSTAR":0.0027941,"MEAN_MOTION_DOT":0.00118442,"MEAN_MOTION_DDOT":0}]
