STARLINK-34698          
1 66445U 25259Z   26003.47490298  .00047948  00000+0  17388-2 0  9992
2 66445  42.9939 282.9801 0002099 262.4864  97.5749 15.27612892  9402
STARLINK-34986          
1 66446U 25259AA  26003.50002314  .00032328  00000+0  11797-2 0  9999
2 66446  42.9988 282.7482 0001527 259.6432 274.0544 15.27565230  5969
STARLINK-34851          
1 66447U 25259AB  26003.50002314  .00036446  00000+0  13281-2 0  9995
2 66447  42.9995 282.9180 0001352 264.2996 198.6495 15.27563097  5817
STARLINK-35355          
1 66448U 25259AC  26003.47619807  .00040067  00000+0  14574-2 0  9993
2 66448  42.9953 282.9845 0001956 272.6338  87.4290 15.27584461  9510
STARLINK-34720          
1 66449U 25259AD  26003.47106008  .00049080  00000+0  17817-2 0  9995
2 66449  43.0029 282.9436 0002194 266.6811  93.3790 15.27570547  9406
STARLINK-35334          
1 66450U 25259AE  26003.50002314  .00032617  00000+0  11910-2 0  9992
2 66450  42.9990 282.7292 0001558 260.4546 280.3207 15.27540970  5900
STARLINK-35643          
1 66456U 25262A   26003.23564380  .00081527  00000+0  19318-2 0  9992
2 66456  43.0035 307.7669 0003673 241.6078 118.4408 15.40795167  8873
STARLINK-35466          
1 66457U 25262B   26003.29601713  .00086301  00000+0  20451-2 0  9996
2 66457  43.0001 307.3597 0001388 283.6288  76.4414 15.40771193  8887
STARLINK-35684          
1 66458U 25262C   26003.00002315  .00037645  00000+0  90537-3 0  9999
2 66458  43.0021 309.0974 0001585 274.6027 229.3646 15.40654265  5959
STARLINK-35449          
1 66459U 25262D   26003.22894166  .00093221  00000+0  22081-2 0  9997
2 66459  43.0012 307.7162 0002984 256.7893 103.2630 15.40746177  8871
STARLINK-35424          
1 66460U 25262E   26003.22670015  .00102358  00000+0  24206-2 0  9997
2 66460  43.0025 307.6977 0002991 254.4259 105.6267 15.40751457  8878
STARLINK-35132          
1 66461U 25262F   26003.22446527  .00082741  00000+0  19641-2 0  9997
2 66461  43.0046 307.6812 0002397 261.2402  98.8183 15.40737482  8878
STARLINK-35499          
1 66462U 25262G   26003.22222723  .00097681  00000+0  23126-2 0  9990
2 66462  43.0023 307.6645 0001698 263.4936  96.5727 15.40741911  8878
STARLINK-35463          
1 66463U 25262H   26003.21774661  .00111921  00000+0  26421-2 0  9998
2 66463  43.0020 307.6290 0001549 275.8974  84.1706 15.40760884  8876
STARLINK-35435          
1 66464U 25262J   26003.21998311  .00106324  00000+0  25169-2 0  9998
2 66464  43.0045 307.6477 0002289 284.9765  75.0838 15.40703272  8875
STARLINK-35448          
1 66465U 25262K   26003.21326766  .00118442  00000+0  27941-2 0  9992
2 66465  43.0016 307.5936 0001212 263.0861  96.9857 15.40751226  8878
